ORBITAL FACTORY 2 (OF-2)
1 45113U 19071C   20205.39382201  .00000684  00000-0  32382-4 0  9999
2 45113  51.6431 189.9165 0012838 185.1385 174.9467 15.33450174 26647
M2 PATHFINDER           
1 45727U 20037E   20205.77458426 -.00000021  00000-0  34309-5 0  9997
2 45727  97.7004  25.0593 0012892 172.9363 187.2035 14.91205610  3436
